{
"type": "FeatureCollection",
"name": "apartments",
"crs": { "type": "name", "properties": { "name": "urn:ogc:def:crs:OGC:1.3:CRS84" } },
"features": [
{ "type": "Feature", "properties": { "fid": 1, "full_id": "w572216958", "osm_id": "572216958", "osm_type": "way", "building": "apartments", "name": "University Apartments", "gnis:feature_id": "2114393", "ele": "149", "addr:street": "Whiteknight Field Drive", "addr:state": "PA", "addr:postcode": "18301", "addr:housenumber": "129", "addr:city": "East Stroudsburg" }, "geometry": { "type": "MultiPolygon", "coordinates": [ [ [ [ -75.1743455, 41.0008736 ], [ -75.1741743, 41.0006938 ], [ -75.1740745, 41.000748 ], [ -75.173875, 41.0005385 ], [ -75.1739588, 41.0004931 ], [ -75.1737749, 41.0002999 ], [ -75.1739396, 41.0002106 ], [ -75.1741362, 41.0004236 ], [ -75.1740554, 41.000466 ], [ -75.174116, 41.0005285 ], [ -75.1741648, 41.0005788 ], [ -75.1742332, 41.0006507 ], [ -75.1743102, 41.0006089 ], [ -75.1744884, 41.000796 ], [ -75.1743455, 41.0008736 ] ] ] ] } },
{ "type": "Feature", "properties": { "fid": 2, "full_id": "w572224711", "osm_id": "572224711", "osm_type": "way", "building": "apartments", "name": "University Ridge Apartments", "gnis:feature_id": null, "ele": null, "addr:street": "East Brown Street", "addr:state": "PA", "addr:postcode": "18301", "addr:housenumber": "400", "addr:city": "East Stroudsburg" }, "geometry": { "type": "MultiPolygon", "coordinates": [ [ [ [ -75.1611012, 40.9987275 ], [ -75.1612658, 40.9989533 ], [ -75.1611005, 40.999022 ], [ -75.1609359, 40.9987962 ], [ -75.1611012, 40.9987275 ] ] ] ] } },
{ "type": "Feature", "properties": { "fid": 3, "full_id": "w572225808", "osm_id": "572225808", "osm_type": "way", "building": "apartments", "name": "University Ridge Apartments", "gnis:feature_id": null, "ele": null, "addr:street": "East Brown Street", "addr:state": "PA", "addr:postcode": "18301", "addr:housenumber": "400", "addr:city": "East Stroudsburg" }, "geometry": { "type": "MultiPolygon", "coordinates": [ [ [ [ -75.1610089, 40.9992191 ], [ -75.1604065, 40.9995146 ], [ -75.1603074, 40.9993995 ], [ -75.1609099, 40.9991041 ], [ -75.1610089, 40.9992191 ] ] ] ] } },
{ "type": "Feature", "properties": { "fid": 4, "full_id": "w572225809", "osm_id": "572225809", "osm_type": "way", "building": "apartments", "name": "University Ridge Apartments", "gnis:feature_id": null, "ele": null, "addr:street": "East Brown Street", "addr:state": "PA", "addr:postcode": "18301", "addr:housenumber": "400", "addr:city": "East Stroudsburg" }, "geometry": { "type": "MultiPolygon", "coordinates": [ [ [ [ -75.160836, 40.9988397 ], [ -75.1601861, 40.9990613 ], [ -75.1601081, 40.998931 ], [ -75.160758, 40.9987095 ], [ -75.160836, 40.9988397 ] ] ] ] } },
{ "type": "Feature", "properties": { "fid": 5, "full_id": "w572225810", "osm_id": "572225810", "osm_type": "way", "building": "apartments", "name": "University Ridge Apartments", "gnis:feature_id": null, "ele": null, "addr:street": "East Brown Street", "addr:state": "PA", "addr:postcode": "18301", "addr:housenumber": "400", "addr:city": "East Stroudsburg" }, "geometry": { "type": "MultiPolygon", "coordinates": [ [ [ [ -75.1601304, 40.9994284 ], [ -75.1599452, 40.9994673 ], [ -75.1598452, 40.9991955 ], [ -75.1600305, 40.9991567 ], [ -75.1601304, 40.9994284 ] ] ] ] } },
{ "type": "Feature", "properties": { "fid": 6, "full_id": "w572225811", "osm_id": "572225811", "osm_type": "way", "building": "apartments", "name": "University Ridge Apartments", "gnis:feature_id": null, "ele": null, "addr:street": "East Brown Street", "addr:state": "PA", "addr:postcode": "18301", "addr:housenumber": "400", "addr:city": "East Stroudsburg" }, "geometry": { "type": "MultiPolygon", "coordinates": [ [ [ [ -75.1601463, 40.9996829 ], [ -75.1595747, 40.9999771 ], [ -75.159463, 40.9998536 ], [ -75.1600346, 40.9995593 ], [ -75.1601463, 40.9996829 ] ] ] ] } },
{ "type": "Feature", "properties": { "fid": 7, "full_id": "w572225812", "osm_id": "572225812", "osm_type": "way", "building": "apartments", "name": "University Ridge Apartments", "gnis:feature_id": null, "ele": null, "addr:street": "East Brown Street", "addr:state": "PA", "addr:postcode": "18301", "addr:housenumber": "400", "addr:city": "East Stroudsburg" }, "geometry": { "type": "MultiPolygon", "coordinates": [ [ [ [ -75.1586709, 40.9997727 ], [ -75.1587704, 40.9996533 ], [ -75.1593495, 40.9999283 ], [ -75.15925, 41.0000476 ], [ -75.1586709, 40.9997727 ] ] ] ] } },
{ "type": "Feature", "properties": { "fid": 8, "full_id": "w635097153", "osm_id": "635097153", "osm_type": "way", "building": "apartments", "name": "Shirley Futch Plaza", "gnis:feature_id": null, "ele": null, "addr:street": "South Kistler Street", "addr:state": "PA", "addr:postcode": "18301", "addr:housenumber": "4", "addr:city": "East Stroudsburg" }, "geometry": { "type": "MultiPolygon", "coordinates": [ [ [ [ -75.1806123, 40.9992889 ], [ -75.1804132, 40.9993476 ], [ -75.1802335, 40.999047 ], [ -75.1799081, 40.99908 ], [ -75.1798838, 40.9989846 ], [ -75.1799712, 40.9989736 ], [ -75.1799615, 40.998915 ], [ -75.1802092, 40.9988857 ], [ -75.1802578, 40.9985484 ], [ -75.1804812, 40.9985741 ], [ -75.1804278, 40.9988967 ], [ -75.1804278, 40.9989736 ], [ -75.1806123, 40.9992889 ] ] ] ] } }
]
}
