{
"type": "FeatureCollection",
"name": "campusbuildings",
"crs": { "type": "name", "properties": { "name": "urn:ogc:def:crs:OGC:1.3:CRS84" } },
"features": [
{ "type": "Feature", "properties": { "fid": 1, "full_id": "w52174170", "osm_id": "52174170", "osm_type": "way", "building": "university", "building:levels": null, "amenity": null, "name": "Eiler-Martin Stadium", "leisure": "bleachers", "gnis:feature_id": "2114370", "ele": "157", "addr:street": "Centre Street", "addr:state": "PA", "addr:postcode": "18301", "addr:housenumber": "1244", "addr:city": "East Stroudsburg" }, "geometry": { "type": "MultiPolygon", "coordinates": [ [ [ [ -75.1728448, 40.9940069 ], [ -75.1730697, 40.9939054 ], [ -75.1730111, 40.9938314 ], [ -75.1729907, 40.9938406 ], [ -75.1729204, 40.9937519 ], [ -75.1729015, 40.9937604 ], [ -75.172718, 40.9935291 ], [ -75.1727464, 40.9935163 ], [ -75.1726753, 40.9934266 ], [ -75.1726899, 40.99342 ], [ -75.1726131, 40.993323 ], [ -75.1723848, 40.9934261 ], [ -75.1728448, 40.9940069 ] ] ] ] } },
{ "type": "Feature", "properties": { "fid": 2, "full_id": "w531956508", "osm_id": "531956508", "osm_type": "way", "building": "university", "building:levels": null, "amenity": null, "name": "Dansbury Commons", "leisure": null, "gnis:feature_id": "2114367", "ele": "150", "addr:street": "Normal Street", "addr:state": "PA", "addr:postcode": "18301", "addr:housenumber": "280", "addr:city": "East Stroudsburg" }, "geometry": { "type": "MultiPolygon", "coordinates": [ [ [ [ -75.174138, 40.9970549 ], [ -75.1734325, 40.9972877 ], [ -75.1733191, 40.9970919 ], [ -75.1733032, 40.9970971 ], [ -75.1732048, 40.9969271 ], [ -75.1733897, 40.9968661 ], [ -75.1733459, 40.9967905 ], [ -75.173528, 40.9967304 ], [ -75.1737219, 40.9966665 ], [ -75.1737471, 40.9967099 ], [ -75.1737657, 40.996742 ], [ -75.173926, 40.9966891 ], [ -75.174052, 40.9969064 ], [ -75.174138, 40.9970549 ] ] ] ] } },
{ "type": "Feature", "properties": { "fid": 3, "full_id": "w531956509", "osm_id": "531956509", "osm_type": "way", "building": "university", "building:levels": null, "amenity": null, "name": "Flagler-Metzgar Center", "leisure": null, "gnis:feature_id": "2114372", "ele": "156", "addr:street": "Isabelle Street", "addr:state": "PA", "addr:postcode": "18301", "addr:housenumber": "107", "addr:city": "East Stroudsburg" }, "geometry": { "type": "MultiPolygon", "coordinates": [ [ [ [ -75.1731429, 40.9970903 ], [ -75.1729768, 40.997166 ], [ -75.1728011, 40.9969464 ], [ -75.1729672, 40.9968707 ], [ -75.1731429, 40.9970903 ] ] ] ] } },
{ "type": "Feature", "properties": { "fid": 4, "full_id": "w531956512", "osm_id": "531956512", "osm_type": "way", "building": "university", "building:levels": null, "amenity": null, "name": "Monroe Hall", "leisure": null, "gnis:feature_id": "2114385", "ele": "158", "addr:street": "Centre Street", "addr:state": "PA", "addr:postcode": "18301", "addr:housenumber": "1253", "addr:city": "East Stroudsburg" }, "geometry": { "type": "MultiPolygon", "coordinates": [ [ [ [ -75.1731268, 40.9950679 ], [ -75.1724901, 40.9952532 ], [ -75.1724347, 40.9951449 ], [ -75.1727252, 40.9950604 ], [ -75.1727071, 40.995025 ], [ -75.1728149, 40.9949936 ], [ -75.172833, 40.995029 ], [ -75.1730714, 40.9949596 ], [ -75.1731268, 40.9950679 ] ] ] ] } },
{ "type": "Feature", "properties": { "fid": 5, "full_id": "w531956519", "osm_id": "531956519", "osm_type": "way", "building": "university", "building:levels": null, "amenity": null, "name": "Koehler Fieldhouse and Natatorium", "leisure": "sports_centre", "gnis:feature_id": "2114377", "ele": "161", "addr:street": "Smith Street", "addr:state": "PA", "addr:postcode": "18301", "addr:housenumber": "213", "addr:city": "East Stroudsburg" }, "geometry": { "type": "MultiPolygon", "coordinates": [ [ [ [ -75.1711553, 40.9970549 ], [ -75.1703013, 40.9975194 ], [ -75.1699326, 40.9971332 ], [ -75.1700088, 40.9970917 ], [ -75.16987, 40.9969383 ], [ -75.1698275, 40.9969587 ], [ -75.1694219, 40.9965315 ], [ -75.1700779, 40.9961863 ], [ -75.1704796, 40.9965908 ], [ -75.170502, 40.9965684 ], [ -75.1705364, 40.9966228 ], [ -75.1704651, 40.9966614 ], [ -75.1705857, 40.996778 ], [ -75.1707866, 40.9966687 ], [ -75.1711553, 40.9970549 ] ] ] ] } },
{ "type": "Feature", "properties": { "fid": 6, "full_id": "w531956520", "osm_id": "531956520", "osm_type": "way", "building": "university", "building:levels": null, "amenity": "library", "name": "Kemp Library", "leisure": null, "gnis:feature_id": "2114376", "ele": "163", "addr:street": "Smith Street", "addr:state": "PA", "addr:postcode": "18301", "addr:housenumber": "160", "addr:city": "East Stroudsburg" }, "geometry": { "type": "MultiPolygon", "coordinates": [ [ [ [ -75.1705461, 40.998535 ], [ -75.1701125, 40.9987608 ], [ -75.1696619, 40.9982678 ], [ -75.1700955, 40.9980421 ], [ -75.1703157, 40.998283 ], [ -75.1705461, 40.998535 ] ] ] ] } },
{ "type": "Feature", "properties": { "fid": 7, "full_id": "w545785747", "osm_id": "545785747", "osm_type": "way", "building": "university", "building:levels": null, "amenity": null, "name": "Mattioli Recreation Center", "leisure": null, "gnis:feature_id": null, "ele": null, "addr:street": "Centre Street", "addr:state": "PA", "addr:postcode": "18301", "addr:housenumber": "1282", "addr:city": "East Stroudsburg" }, "geometry": { "type": "MultiPolygon", "coordinates": [ [ [ [ -75.1699969, 40.995681 ], [ -75.1699507, 40.9956414 ], [ -75.1700123, 40.9956042 ], [ -75.1698984, 40.9954926 ], [ -75.1697505, 40.9955624 ], [ -75.1694485, 40.9953484 ], [ -75.1702773, 40.9948205 ], [ -75.1705577, 40.995074 ], [ -75.1704406, 40.9951484 ], [ -75.1705546, 40.9952717 ], [ -75.1704468, 40.9953461 ], [ -75.1704776, 40.9953763 ], [ -75.1704036, 40.9954252 ], [ -75.1703696, 40.9953987 ], [ -75.1703587, 40.9954059 ], [ -75.1703895, 40.9954311 ], [ -75.1699969, 40.995681 ] ] ] ] } },
{ "type": "Feature", "properties": { "fid": 8, "full_id": "w545785748", "osm_id": "545785748", "osm_type": "way", "building": "university", "building:levels": "4", "amenity": null, "name": "Warren E. & Sandra Hoeffner Science and Technology Center", "leisure": null, "gnis:feature_id": null, "ele": null, "addr:street": "Normal Street", "addr:state": "PA", "addr:postcode": "18301", "addr:housenumber": "110", "addr:city": "East Stroudsburg" }, "geometry": { "type": "MultiPolygon", "coordinates": [ [ [ [ -75.1761235, 40.9965026 ], [ -75.1756327, 40.9966631 ], [ -75.1756812, 40.9967476 ], [ -75.17544, 40.9968265 ], [ -75.1751905, 40.9963922 ], [ -75.1753667, 40.9963345 ], [ -75.1753865, 40.9963688 ], [ -75.1754327, 40.9963537 ], [ -75.1754521, 40.9963876 ], [ -75.1754991, 40.9963722 ], [ -75.1755128, 40.9963961 ], [ -75.175742, 40.9963212 ], [ -75.1759216, 40.9962625 ], [ -75.1759756, 40.9962448 ], [ -75.1760773, 40.996422 ], [ -75.1761235, 40.9965026 ] ] ] ] } },
{ "type": "Feature", "properties": { "fid": 9, "full_id": "w554578874", "osm_id": "554578874", "osm_type": "way", "building": "university", "building:levels": null, "amenity": null, "name": "Computing Center", "leisure": null, "gnis:feature_id": "2114366", "ele": "152", "addr:street": "Normal Street", "addr:state": "PA", "addr:postcode": "18301", "addr:housenumber": "117", "addr:city": "East Stroudsburg" }, "geometry": { "type": "MultiPolygon", "coordinates": [ [ [ [ -75.1746805, 40.9958632 ], [ -75.1743567, 40.9959579 ], [ -75.174411, 40.9960636 ], [ -75.1744501, 40.9960522 ], [ -75.1744626, 40.9960766 ], [ -75.1747473, 40.9959933 ], [ -75.1746805, 40.9958632 ] ] ] ] } },
{ "type": "Feature", "properties": { "fid": 10, "full_id": "w554578875", "osm_id": "554578875", "osm_type": "way", "building": "university", "building:levels": null, "amenity": null, "name": "Joseph H. & Mildred E. Beers Lecture Hall", "leisure": null, "gnis:feature_id": "2114365", "ele": "151", "addr:street": "University Circle", "addr:state": "PA", "addr:postcode": "18301", "addr:housenumber": "130", "addr:city": "East Stroudsburg" }, "geometry": { "type": "MultiPolygon", "coordinates": [ [ [ [ -75.1750394, 40.9954604 ], [ -75.1747636, 40.9955377 ], [ -75.1748361, 40.9956852 ], [ -75.175112, 40.9956079 ], [ -75.1750394, 40.9954604 ] ] ] ] } },
{ "type": "Feature", "properties": { "fid": 11, "full_id": "w572213423", "osm_id": "572213423", "osm_type": "way", "building": "university", "building:levels": null, "amenity": null, "name": "Reibman Administration Building", "leisure": null, "gnis:feature_id": "2114388", "ele": "146", "addr:street": "Normal Street", "addr:state": "PA", "addr:postcode": "18301", "addr:housenumber": "90", "addr:city": "East Stroudsburg" }, "geometry": { "type": "MultiPolygon", "coordinates": [ [ [ [ -75.1770572, 40.9958995 ], [ -75.1768838, 40.9959233 ], [ -75.1768172, 40.9956821 ], [ -75.1766063, 40.9957514 ], [ -75.1765424, 40.9956605 ], [ -75.176792, 40.9955814 ], [ -75.1768501, 40.9955597 ], [ -75.1769127, 40.9955508 ], [ -75.1769634, 40.9955558 ], [ -75.1769842, 40.9955897 ], [ -75.1770572, 40.9958995 ] ] ] ] } },
{ "type": "Feature", "properties": { "fid": 12, "full_id": "w572213866", "osm_id": "572213866", "osm_type": "way", "building": "university", "building:levels": null, "amenity": null, "name": "Conference Services & Multicultural House", "leisure": null, "gnis:feature_id": null, "ele": null, "addr:street": "Normal Street", "addr:state": "PA", "addr:postcode": "18301", "addr:housenumber": "96", "addr:city": "East Stroudsburg" }, "geometry": { "type": "MultiPolygon", "coordinates": [ [ [ [ -75.1764082, 40.9957553 ], [ -75.176453, 40.9958283 ], [ -75.1762924, 40.9958844 ], [ -75.1762476, 40.9958114 ], [ -75.1764082, 40.9957553 ] ] ] ] } },
{ "type": "Feature", "properties": { "fid": 13, "full_id": "w572213867", "osm_id": "572213867", "osm_type": "way", "building": "university", "building:levels": null, "amenity": null, "name": "Warren E. & Sandra Hoeffner Science and Technology Center", "leisure": null, "gnis:feature_id": null, "ele": null, "addr:street": "Normal Street", "addr:state": "PA", "addr:postcode": "18301", "addr:housenumber": "108", "addr:city": "East Stroudsburg" }, "geometry": { "type": "MultiPolygon", "coordinates": [ [ [ [ -75.1759579, 40.9962157 ], [ -75.1759124, 40.9962222 ], [ -75.1759216, 40.9962625 ], [ -75.175742, 40.9963212 ], [ -75.1757218, 40.9962586 ], [ -75.1756375, 40.9960037 ], [ -75.1756669, 40.9959983 ], [ -75.1758848, 40.9959584 ], [ -75.1759579, 40.9962157 ] ] ] ] } },
{ "type": "Feature", "properties": { "fid": 14, "full_id": "w572213868", "osm_id": "572213868", "osm_type": "way", "building": "university", "building:levels": null, "amenity": null, "name": "Moore Biology Hall", "leisure": null, "gnis:feature_id": "2114386", "ele": "150", "addr:street": "Normal Street", "addr:state": "PA", "addr:postcode": "18301", "addr:housenumber": "114", "addr:city": "East Stroudsburg" }, "geometry": { "type": "MultiPolygon", "coordinates": [ [ [ [ -75.1750235, 40.9963108 ], [ -75.1750777, 40.9963948 ], [ -75.1750742, 40.9964119 ], [ -75.1751787, 40.9966035 ], [ -75.1752151, 40.9966231 ], [ -75.175247, 40.9966814 ], [ -75.1751493, 40.9967118 ], [ -75.1751653, 40.9967413 ], [ -75.175022, 40.9967859 ], [ -75.1747944, 40.9963694 ], [ -75.174773, 40.9963669 ], [ -75.1747178, 40.9962734 ], [ -75.1747293, 40.9962456 ], [ -75.1748373, 40.9962119 ], [ -75.1748704, 40.9962219 ], [ -75.1749161, 40.9963004 ], [ -75.1749149, 40.9963191 ], [ -75.1749187, 40.996325 ], [ -75.1749313, 40.9963446 ], [ -75.1750235, 40.9963108 ] ] ] ] } },
{ "type": "Feature", "properties": { "fid": 15, "full_id": "w572213869", "osm_id": "572213869", "osm_type": "way", "building": "university", "building:levels": null, "amenity": null, "name": "Institutional Storeroom and Garage", "leisure": null, "gnis:feature_id": null, "ele": null, "addr:street": "South Green Street", "addr:state": "PA", "addr:postcode": "18301", "addr:housenumber": "149", "addr:city": "East Stroudsburg" }, "geometry": { "type": "MultiPolygon", "coordinates": [ [ [ [ -75.1748961, 40.9968317 ], [ -75.1745488, 40.9969406 ], [ -75.1744351, 40.9967341 ], [ -75.1747824, 40.9966252 ], [ -75.1748961, 40.9968317 ] ] ] ] } },
{ "type": "Feature", "properties": { "fid": 16, "full_id": "w572213870", "osm_id": "572213870", "osm_type": "way", "building": "university", "building:levels": null, "amenity": null, "name": "Facilities Management Complex", "leisure": null, "gnis:feature_id": null, "ele": null, "addr:street": "Normal Street", "addr:state": "PA", "addr:postcode": "18301", "addr:housenumber": "118", "addr:city": "East Stroudsburg" }, "geometry": { "type": "MultiPolygon", "coordinates": [ [ [ [ -75.1746922, 40.9965239 ], [ -75.1745601, 40.9965669 ], [ -75.1745421, 40.9965354 ], [ -75.1745708, 40.996526 ], [ -75.1745322, 40.9964586 ], [ -75.1743668, 40.9965124 ], [ -75.1743312, 40.99645 ], [ -75.1746, 40.9963625 ], [ -75.1746922, 40.9965239 ] ] ] ] } },
{ "type": "Feature", "properties": { "fid": 17, "full_id": "w572213871", "osm_id": "572213871", "osm_type": "way", "building": "university", "building:levels": null, "amenity": null, "name": "Utility Plant", "leisure": null, "gnis:feature_id": null, "ele": null, "addr:street": "Normal Street", "addr:state": "PA", "addr:postcode": "18301", "addr:housenumber": "200", "addr:city": "East Stroudsburg" }, "geometry": { "type": "MultiPolygon", "coordinates": [ [ [ [ -75.1743312, 40.99645 ], [ -75.1741338, 40.9965151 ], [ -75.1742413, 40.9967108 ], [ -75.1743883, 40.9966648 ], [ -75.1743496, 40.9965944 ], [ -75.1745421, 40.9965354 ], [ -75.1745708, 40.996526 ], [ -75.1745322, 40.9964586 ], [ -75.1743668, 40.9965124 ], [ -75.1743312, 40.99645 ] ] ] ] } },
{ "type": "Feature", "properties": { "fid": 18, "full_id": "w572214712", "osm_id": "572214712", "osm_type": "way", "building": "university", "building:levels": null, "amenity": null, "name": "Dave Carllyon Pavilion", "leisure": null, "gnis:feature_id": "2114368", "ele": "147", "addr:street": "Isabelle Street", "addr:state": "PA", "addr:postcode": "18301", "addr:housenumber": "119", "addr:city": "East Stroudsburg" }, "geometry": { "type": "MultiPolygon", "coordinates": [ [ [ [ -75.1728687, 40.9985246 ], [ -75.1728087, 40.9985167 ], [ -75.1727691, 40.9985115 ], [ -75.1727948, 40.9984 ], [ -75.1728062, 40.9983506 ], [ -75.1729058, 40.9983637 ], [ -75.1728687, 40.9985246 ] ] ] ] } },
{ "type": "Feature", "properties": { "fid": 19, "full_id": "w572214974", "osm_id": "572214974", "osm_type": "way", "building": "university", "building:levels": null, "amenity": null, "name": "Whitenight Field Storage", "leisure": null, "gnis:feature_id": null, "ele": null, "addr:street": "Whiteknight Field Drive", "addr:state": "PA", "addr:postcode": "18301", "addr:housenumber": "112", "addr:city": "East Stroudsburg" }, "geometry": { "type": "MultiPolygon", "coordinates": [ [ [ [ -75.1734651, 40.9993287 ], [ -75.1734014, 40.9993595 ], [ -75.1733378, 40.9992934 ], [ -75.1734002, 40.999258 ], [ -75.1734651, 40.9993287 ] ] ] ] } },
{ "type": "Feature", "properties": { "fid": 20, "full_id": "w572215168", "osm_id": "572215168", "osm_type": "way", "building": "university", "building:levels": null, "amenity": null, "name": "Facilities Management Annex", "leisure": null, "gnis:feature_id": null, "ele": null, "addr:street": "Isabelle Street", "addr:state": "PA", "addr:postcode": "18301", "addr:housenumber": "111", "addr:city": "East Stroudsburg" }, "geometry": { "type": "MultiPolygon", "coordinates": [ [ [ [ -75.173314, 40.9973459 ], [ -75.1732319, 40.9973855 ], [ -75.1731813, 40.9973257 ], [ -75.1731062, 40.9973619 ], [ -75.1730637, 40.9973117 ], [ -75.1730307, 40.9973276 ], [ -75.1730022, 40.9972939 ], [ -75.1731923, 40.9972022 ], [ -75.173314, 40.9973459 ] ] ] ] } },
{ "type": "Feature", "properties": { "fid": 21, "full_id": "w572215169", "osm_id": "572215169", "osm_type": "way", "building": "university", "building:levels": null, "amenity": null, "name": "D.G.S. Field Office", "leisure": null, "gnis:feature_id": null, "ele": null, "addr:street": "Isabelle Street", "addr:state": "PA", "addr:postcode": "18301", "addr:housenumber": "115", "addr:city": "East Stroudsburg" }, "geometry": { "type": "MultiPolygon", "coordinates": [ [ [ [ -75.1732776, 40.9974185 ], [ -75.1733958, 40.9975814 ], [ -75.1733459, 40.9976021 ], [ -75.1733101, 40.9975529 ], [ -75.1732637, 40.9975721 ], [ -75.1732292, 40.9975246 ], [ -75.1732718, 40.997507 ], [ -75.1732238, 40.9974408 ], [ -75.1732776, 40.9974185 ] ] ] ] } },
{ "type": "Feature", "properties": { "fid": 22, "full_id": "w572215170", "osm_id": "572215170", "osm_type": "way", "building": "university", "building:levels": null, "amenity": null, "name": "Gessner Science Hall", "leisure": null, "gnis:feature_id": "2114373", "ele": "150", "addr:street": "Normal Street", "addr:state": "PA", "addr:postcode": "18301", "addr:housenumber": "109", "addr:city": "East Stroudsburg" }, "geometry": { "type": "MultiPolygon", "coordinates": [ [ [ [ -75.1748588, 40.9959637 ], [ -75.174774, 40.9958008 ], [ -75.1753082, 40.9956426 ], [ -75.1753632, 40.9956542 ], [ -75.1753754, 40.9956776 ], [ -75.1754052, 40.9956688 ], [ -75.1754651, 40.9957841 ], [ -75.1748588, 40.9959637 ] ] ] ] } },
{ "type": "Feature", "properties": { "fid": 23, "full_id": "w572215346", "osm_id": "572215346", "osm_type": "way", "building": "university", "building:levels": null, "amenity": null, "name": "Presidentâ€™s Residence", "leisure": null, "gnis:feature_id": "2114387", "ele": "149", "addr:street": "University Circle", "addr:state": "PA", "addr:postcode": "18301", "addr:housenumber": "134", "addr:city": "East Stroudsburg" }, "geometry": { "type": "MultiPolygon", "coordinates": [ [ [ [ -75.1758261, 40.9955251 ], [ -75.1758129, 40.9956002 ], [ -75.1757757, 40.9955964 ], [ -75.1757679, 40.9956406 ], [ -75.175692, 40.9956649 ], [ -75.1756066, 40.9956564 ], [ -75.1756082, 40.9956469 ], [ -75.175569, 40.995643 ], [ -75.1755619, 40.9956833 ], [ -75.1754682, 40.9956739 ], [ -75.1754801, 40.9956064 ], [ -75.1756139, 40.9956198 ], [ -75.1756339, 40.9955058 ], [ -75.1757017, 40.9955126 ], [ -75.1758261, 40.9955251 ] ] ] ] } },
{ "type": "Feature", "properties": { "fid": 24, "full_id": "w572215347", "osm_id": "572215347", "osm_type": "way", "building": "university", "building:levels": null, "amenity": null, "name": "Stroud Hall", "leisure": null, "gnis:feature_id": "2114392", "ele": "153", "addr:street": "University Circle", "addr:state": "PA", "addr:postcode": "18301", "addr:housenumber": "126", "addr:city": "East Stroudsburg" }, "geometry": { "type": "MultiPolygon", "coordinates": [ [ [ [ -75.1746249, 40.9957886 ], [ -75.1743406, 40.9958698 ], [ -75.1742102, 40.99561 ], [ -75.1741968, 40.9955832 ], [ -75.1741897, 40.995569 ], [ -75.1740524, 40.9956082 ], [ -75.1738046, 40.9951137 ], [ -75.1742301, 40.9949922 ], [ -75.1744519, 40.9954349 ], [ -75.1745537, 40.9954058 ], [ -75.1746081, 40.9955143 ], [ -75.1745025, 40.9955444 ], [ -75.1746249, 40.9957886 ] ] ] ] } },
{ "type": "Feature", "properties": { "fid": 25, "full_id": "w572215348", "osm_id": "572215348", "osm_type": "way", "building": "university", "building:levels": null, "amenity": null, "name": "Abeloff Center for the Performing Arts", "leisure": null, "gnis:feature_id": "2114363", "ele": "151", "addr:street": "University Circle", "addr:state": "PA", "addr:postcode": "18301", "addr:housenumber": "122", "addr:city": "East Stroudsburg" }, "geometry": { "type": "MultiPolygon", "coordinates": [ [ [ [ -75.1753685, 40.9944137 ], [ -75.1752423, 40.9945369 ], [ -75.1751898, 40.9945063 ], [ -75.1751773, 40.9945184 ], [ -75.1749238, 40.9943705 ], [ -75.1749402, 40.9943545 ], [ -75.1748663, 40.9943114 ], [ -75.1749946, 40.9941861 ], [ -75.1750627, 40.9942258 ], [ -75.1750859, 40.9942031 ], [ -75.175355, 40.9943601 ], [ -75.1753256, 40.9943887 ], [ -75.1753685, 40.9944137 ] ] ] ] } },
{ "type": "Feature", "properties": { "fid": 26, "full_id": "w572215776", "osm_id": "572215776", "osm_type": "way", "building": "university", "building:levels": null, "amenity": null, "name": "Rosenkrans Hall", "leisure": null, "gnis:feature_id": "2114389", "ele": "152", "addr:street": "University Circle", "addr:state": "PA", "addr:postcode": "18301", "addr:housenumber": "124", "addr:city": "East Stroudsburg" }, "geometry": { "type": "MultiPolygon", "coordinates": [ [ [ [ -75.1749201, 40.9948232 ], [ -75.1746117, 40.9949068 ], [ -75.1745987, 40.9948796 ], [ -75.1742935, 40.9949623 ], [ -75.1741886, 40.9947419 ], [ -75.1744231, 40.9946783 ], [ -75.17433, 40.9944826 ], [ -75.1744064, 40.9944619 ], [ -75.1743784, 40.9944031 ], [ -75.1745645, 40.9943527 ], [ -75.1746908, 40.9946182 ], [ -75.1748075, 40.9945865 ], [ -75.1749201, 40.9948232 ] ] ] ] } },
{ "type": "Feature", "properties": { "fid": 27, "full_id": "w572215777", "osm_id": "572215777", "osm_type": "way", "building": "university", "building:levels": null, "amenity": null, "name": "Procurement and Contracting", "leisure": null, "gnis:feature_id": null, "ele": null, "addr:street": "Ridgeway Street", "addr:state": "PA", "addr:postcode": "18301", "addr:housenumber": "145", "addr:city": "East Stroudsburg" }, "geometry": { "type": "MultiPolygon", "coordinates": [ [ [ [ -75.1772763, 40.9945479 ], [ -75.1772195, 40.9945516 ], [ -75.1771751, 40.9945348 ], [ -75.177106, 40.9943709 ], [ -75.1772244, 40.9943541 ], [ -75.1772763, 40.9945479 ] ] ] ] } },
{ "type": "Feature", "properties": { "fid": 28, "full_id": "w572215778", "osm_id": "572215778", "osm_type": "way", "building": "university", "building:levels": null, "amenity": null, "name": "DeNike Center for Human Services", "leisure": null, "gnis:feature_id": "2114369", "ele": "150", "addr:street": "University Circle", "addr:state": "PA", "addr:postcode": "18301", "addr:housenumber": "116", "addr:city": "East Stroudsburg" }, "geometry": { "type": "MultiPolygon", "coordinates": [ [ [ [ -75.1764988, 40.9936593 ], [ -75.1762619, 40.9940579 ], [ -75.1761607, 40.9940952 ], [ -75.1759928, 40.9940523 ], [ -75.1762717, 40.993581 ], [ -75.1764988, 40.9936593 ] ] ] ] } },
{ "type": "Feature", "properties": { "fid": 29, "full_id": "w572216448", "osm_id": "572216448", "osm_type": "way", "building": "university", "building:levels": null, "amenity": null, "name": "University Center", "leisure": null, "gnis:feature_id": null, "ele": null, "addr:street": "Normal Street", "addr:state": "PA", "addr:postcode": "18301", "addr:housenumber": "205", "addr:city": "East Stroudsburg" }, "geometry": { "type": "MultiPolygon", "coordinates": [ [ [ [ -75.1739196, 40.9956658 ], [ -75.1739261, 40.9956777 ], [ -75.1739392, 40.9957021 ], [ -75.1741137, 40.9960265 ], [ -75.1741478, 40.996016 ], [ -75.1742159, 40.9961425 ], [ -75.1737853, 40.9962746 ], [ -75.1737701, 40.9962463 ], [ -75.1736899, 40.9962709 ], [ -75.1735958, 40.9960962 ], [ -75.1736933, 40.9960663 ], [ -75.1735403, 40.995782 ], [ -75.1739196, 40.9956658 ] ] ] ] } },
{ "type": "Feature", "properties": { "fid": 30, "full_id": "w572216451", "osm_id": "572216451", "osm_type": "way", "building": "university", "building:levels": null, "amenity": null, "name": "Center for Hospitality Management", "leisure": null, "gnis:feature_id": null, "ele": null, "addr:street": "Centre Street", "addr:state": "PA", "addr:postcode": "18301", "addr:housenumber": "1245", "addr:city": "East Stroudsburg" }, "geometry": { "type": "MultiPolygon", "coordinates": [ [ [ [ -75.1736856, 40.9952689 ], [ -75.1737399, 40.9953745 ], [ -75.1737943, 40.9953586 ], [ -75.1738748, 40.9955151 ], [ -75.1736553, 40.9955795 ], [ -75.1736553, 40.9956499 ], [ -75.1733211, 40.9957478 ], [ -75.1731382, 40.9953921 ], [ -75.173258, 40.995357 ], [ -75.1732385, 40.9953191 ], [ -75.1733587, 40.9952839 ], [ -75.1733949, 40.9953541 ], [ -75.1735446, 40.9953102 ], [ -75.1736856, 40.9952689 ] ] ] ] } },
{ "type": "Feature", "properties": { "fid": 31, "full_id": "w572216452", "osm_id": "572216452", "osm_type": "way", "building": "university", "building:levels": null, "amenity": null, "name": "Upward Bound Center", "leisure": null, "gnis:feature_id": null, "ele": null, "addr:street": "Normal Street", "addr:state": "PA", "addr:postcode": "18301", "addr:housenumber": "285", "addr:city": "East Stroudsburg" }, "geometry": { "type": "MultiPolygon", "coordinates": [ [ [ [ -75.173138, 40.9964002 ], [ -75.1731788, 40.9964726 ], [ -75.1727919, 40.9965967 ], [ -75.1727512, 40.9965243 ], [ -75.173138, 40.9964002 ] ] ] ] } },
{ "type": "Feature", "properties": { "fid": 32, "full_id": "w572216604", "osm_id": "572216604", "osm_type": "way", "building": "university", "building:levels": null, "amenity": null, "name": null, "leisure": null, "gnis:feature_id": null, "ele": null, "addr:street": "South Green Street", "addr:state": "PA", "addr:postcode": "18301", "addr:housenumber": "141", "addr:city": "East Stroudsburg" }, "geometry": { "type": "MultiPolygon", "coordinates": [ [ [ [ -75.1749, 40.9971163 ], [ -75.1748835, 40.9970609 ], [ -75.1749659, 40.9970372 ], [ -75.1750004, 40.9970881 ], [ -75.1749, 40.9971163 ] ] ] ] } },
{ "type": "Feature", "properties": { "fid": 33, "full_id": "w572218095", "osm_id": "572218095", "osm_type": "way", "building": "university", "building:levels": null, "amenity": null, "name": "Economics Department", "leisure": null, "gnis:feature_id": null, "ele": null, "addr:street": "Normal Street", "addr:state": "PA", "addr:postcode": "18301", "addr:housenumber": "420", "addr:city": "East Stroudsburg" }, "geometry": { "type": "MultiPolygon", "coordinates": [ [ [ [ -75.1690338, 40.9987617 ], [ -75.1690136, 40.9987712 ], [ -75.1690265, 40.9987867 ], [ -75.1689888, 40.9988046 ], [ -75.1689762, 40.9987894 ], [ -75.1689119, 40.9988198 ], [ -75.1688521, 40.9987478 ], [ -75.1689743, 40.99869 ], [ -75.1690338, 40.9987617 ] ] ] ] } },
{ "type": "Feature", "properties": { "fid": 34, "full_id": "w572218096", "osm_id": "572218096", "osm_type": "way", "building": "university", "building:levels": null, "amenity": null, "name": null, "leisure": null, "gnis:feature_id": null, "ele": null, "addr:street": "Smith Street", "addr:state": "PA", "addr:postcode": "18301", "addr:housenumber": "208", "addr:city": "East Stroudsburg" }, "geometry": { "type": "MultiPolygon", "coordinates": [ [ [ [ -75.1698314, 40.9974754 ], [ -75.1697376, 40.9975281 ], [ -75.1696705, 40.9974572 ], [ -75.1697751, 40.9974147 ], [ -75.1698314, 40.9974754 ] ] ] ] } },
{ "type": "Feature", "properties": { "fid": 35, "full_id": "w572218097", "osm_id": "572218097", "osm_type": "way", "building": "university", "building:levels": null, "amenity": null, "name": "Athletics Department", "leisure": null, "gnis:feature_id": null, "ele": null, "addr:street": "Smith Street", "addr:state": "PA", "addr:postcode": "18301", "addr:housenumber": "216", "addr:city": "East Stroudsburg" }, "geometry": { "type": "MultiPolygon", "coordinates": [ [ [ [ -75.169398, 40.9970468 ], [ -75.1693117, 40.997099 ], [ -75.1691863, 40.9969807 ], [ -75.1692413, 40.9969475 ], [ -75.1692863, 40.9969899 ], [ -75.169321, 40.9969689 ], [ -75.1693441, 40.9969907 ], [ -75.1693735, 40.9969729 ], [ -75.1694067, 40.9970042 ], [ -75.1693738, 40.9970241 ], [ -75.169398, 40.9970468 ] ] ] ] } },
{ "type": "Feature", "properties": { "fid": 36, "full_id": "w572218098", "osm_id": "572218098", "osm_type": "way", "building": "university", "building:levels": null, "amenity": null, "name": "Orientation & New Student Programs", "leisure": null, "gnis:feature_id": null, "ele": null, "addr:street": "Normal Street", "addr:state": "PA", "addr:postcode": "18301", "addr:housenumber": "403", "addr:city": "East Stroudsburg" }, "geometry": { "type": "MultiPolygon", "coordinates": [ [ [ [ -75.1693906, 40.9979869 ], [ -75.1692896, 40.9980397 ], [ -75.1692067, 40.9979493 ], [ -75.1693077, 40.9978965 ], [ -75.1693906, 40.9979869 ] ] ] ] } },
{ "type": "Feature", "properties": { "fid": 37, "full_id": "w572218619", "osm_id": "572218619", "osm_type": "way", "building": "university", "building:levels": null, "amenity": null, "name": "Fine and Performing Arts Center", "leisure": null, "gnis:feature_id": null, "ele": null, "addr:street": "Fine Arts Drive", "addr:state": "PA", "addr:postcode": "18301", "addr:housenumber": "125", "addr:city": "East Stroudsburg" }, "geometry": { "type": "MultiPolygon", "coordinates": [ [ [ [ -75.1665964, 40.9987711 ], [ -75.1661843, 40.9989864 ], [ -75.1660838, 40.9988726 ], [ -75.1657913, 40.9990197 ], [ -75.1655982, 40.998801 ], [ -75.1659059, 40.9986462 ], [ -75.1658702, 40.9986058 ], [ -75.1662593, 40.9984084 ], [ -75.1665964, 40.9987711 ] ] ] ] } },
{ "type": "Feature", "properties": { "fid": 38, "full_id": "w572219306", "osm_id": "572219306", "osm_type": "way", "building": "university", "building:levels": null, "amenity": null, "name": "Center for Computer Security", "leisure": null, "gnis:feature_id": null, "ele": null, "addr:street": "Normal Street", "addr:state": "PA", "addr:postcode": "18301", "addr:housenumber": "434", "addr:city": "East Stroudsburg" }, "geometry": { "type": "MultiPolygon", "coordinates": [ [ [ [ -75.1674376, 40.9995021 ], [ -75.1672843, 40.9995869 ], [ -75.1672067, 40.999507 ], [ -75.1673041, 40.9994531 ], [ -75.1673202, 40.9994697 ], [ -75.1673761, 40.9994388 ], [ -75.1674376, 40.9995021 ] ] ] ] } },
{ "type": "Feature", "properties": { "fid": 39, "full_id": "w572220046", "osm_id": "572220046", "osm_type": "way", "building": "university", "building:levels": null, "amenity": null, "name": "Frederick Douglass Institute", "leisure": null, "gnis:feature_id": null, "ele": null, "addr:street": "Normal Street", "addr:state": "PA", "addr:postcode": "18301", "addr:housenumber": "411", "addr:city": "East Stroudsburg" }, "geometry": { "type": "MultiPolygon", "coordinates": [ [ [ [ -75.1688194, 40.9982951 ], [ -75.1687635, 40.9983235 ], [ -75.1687553, 40.9983144 ], [ -75.1686696, 40.998358 ], [ -75.1686778, 40.9983671 ], [ -75.1686393, 40.9983867 ], [ -75.168631, 40.9983774 ], [ -75.1685919, 40.9983973 ], [ -75.1685336, 40.998332 ], [ -75.1686487, 40.9982734 ], [ -75.1686627, 40.9982891 ], [ -75.1687668, 40.9982362 ], [ -75.1688194, 40.9982951 ] ] ] ] } },
{ "type": "Feature", "properties": { "fid": 40, "full_id": "w572220232", "osm_id": "572220232", "osm_type": "way", "building": "university", "building:levels": null, "amenity": null, "name": "ROTC", "leisure": null, "gnis:feature_id": null, "ele": null, "addr:street": "Normal Street", "addr:state": "PA", "addr:postcode": "18301", "addr:housenumber": "427", "addr:city": "East Stroudsburg" }, "geometry": { "type": "MultiPolygon", "coordinates": [ [ [ [ -75.1676073, 40.9989289 ], [ -75.1673857, 40.9990389 ], [ -75.1673216, 40.9989619 ], [ -75.1675373, 40.9988387 ], [ -75.1676073, 40.9989289 ] ] ] ] } },
{ "type": "Feature", "properties": { "fid": 41, "full_id": "w572220233", "osm_id": "572220233", "osm_type": "way", "building": "university", "building:levels": null, "amenity": null, "name": null, "leisure": null, "gnis:feature_id": null, "ele": null, "addr:street": "Normal Street", "addr:state": "PA", "addr:postcode": "18301", "addr:housenumber": "433", "addr:city": "East Stroudsburg" }, "geometry": { "type": "MultiPolygon", "coordinates": [ [ [ [ -75.1668372, 40.999251 ], [ -75.1668017, 40.9992668 ], [ -75.1667746, 40.9992408 ], [ -75.1668258, 40.9992258 ], [ -75.1668372, 40.999251 ] ] ] ] } },
{ "type": "Feature", "properties": { "fid": 42, "full_id": "w572220710", "osm_id": "572220710", "osm_type": "way", "building": "university", "building:levels": null, "amenity": null, "name": "Honors Program", "leisure": null, "gnis:feature_id": null, "ele": null, "addr:street": "Normal Street", "addr:state": "PA", "addr:postcode": "18301", "addr:housenumber": "417", "addr:city": "East Stroudsburg" }, "geometry": { "type": "MultiPolygon", "coordinates": [ [ [ [ -75.1681548, 40.9985738 ], [ -75.1681973, 40.9986217 ], [ -75.1681754, 40.9986327 ], [ -75.1681956, 40.9986554 ], [ -75.168129, 40.998689 ], [ -75.168107, 40.9986642 ], [ -75.1680786, 40.9986786 ], [ -75.1679882, 40.9985767 ], [ -75.1680347, 40.9985532 ], [ -75.1680844, 40.9986093 ], [ -75.1681548, 40.9985738 ] ] ] ] } },
{ "type": "Feature", "properties": { "fid": 43, "full_id": "w572220711", "osm_id": "572220711", "osm_type": "way", "building": "university", "building:levels": null, "amenity": null, "name": null, "leisure": null, "gnis:feature_id": null, "ele": null, "addr:street": "Normal Street", "addr:state": "PA", "addr:postcode": "18301", "addr:housenumber": "432", "addr:city": "East Stroudsburg" }, "geometry": { "type": "MultiPolygon", "coordinates": [ [ [ [ -75.1675635, 40.9993288 ], [ -75.1676109, 40.9993916 ], [ -75.1674978, 40.9994402 ], [ -75.1674504, 40.9993775 ], [ -75.1675635, 40.9993288 ] ] ] ] } },
{ "type": "Feature", "properties": { "fid": 44, "full_id": "w572220850", "osm_id": "572220850", "osm_type": "way", "building": "university", "building:levels": null, "amenity": null, "name": "Philosophy & Religious Studies", "leisure": null, "gnis:feature_id": null, "ele": null, "addr:street": "Normal Street", "addr:state": "PA", "addr:postcode": "18301", "addr:housenumber": "428", "addr:city": "East Stroudsburg" }, "geometry": { "type": "MultiPolygon", "coordinates": [ [ [ [ -75.1678693, 40.999242 ], [ -75.1677486, 40.9993037 ], [ -75.1677705, 40.9993281 ], [ -75.1676802, 40.9993742 ], [ -75.1676148, 40.9993014 ], [ -75.1678258, 40.9991936 ], [ -75.1678693, 40.999242 ] ] ] ] } },
{ "type": "Feature", "properties": { "fid": 45, "full_id": "w572220878", "osm_id": "572220878", "osm_type": "way", "building": "university", "building:levels": null, "amenity": null, "name": null, "leisure": null, "gnis:feature_id": null, "ele": null, "addr:street": "Normal Street", "addr:state": "PA", "addr:postcode": "18301", "addr:housenumber": "436", "addr:city": "East Stroudsburg" }, "geometry": { "type": "MultiPolygon", "coordinates": [ [ [ [ -75.1671445, 40.9996244 ], [ -75.1670261, 40.9996856 ], [ -75.166988, 40.9996435 ], [ -75.1670103, 40.999632 ], [ -75.1669929, 40.9996129 ], [ -75.1670891, 40.9995633 ], [ -75.1671445, 40.9996244 ] ] ] ] } },
{ "type": "Feature", "properties": { "fid": 46, "full_id": "w572221594", "osm_id": "572221594", "osm_type": "way", "building": "university", "building:levels": null, "amenity": null, "name": "Facilities General Services", "leisure": null, "gnis:feature_id": null, "ele": null, "addr:street": "Marguerite Street", "addr:state": "PA", "addr:postcode": "18301", "addr:housenumber": "162", "addr:city": "East Stroudsburg" }, "geometry": { "type": "MultiPolygon", "coordinates": [ [ [ [ -75.1683162, 40.9998149 ], [ -75.1683949, 40.9998881 ], [ -75.1682891, 40.9999529 ], [ -75.1682628, 40.9999285 ], [ -75.1682821, 40.9999166 ], [ -75.1682298, 40.9998679 ], [ -75.1683162, 40.9998149 ] ] ] ] } },
{ "type": "Feature", "properties": { "fid": 47, "full_id": "w572221596", "osm_id": "572221596", "osm_type": "way", "building": "university", "building:levels": null, "amenity": null, "name": null, "leisure": null, "gnis:feature_id": null, "ele": null, "addr:street": "Mary Street", "addr:state": "PA", "addr:postcode": "18301", "addr:housenumber": "207", "addr:city": "East Stroudsburg" }, "geometry": { "type": "MultiPolygon", "coordinates": [ [ [ [ -75.1676582, 41.0007983 ], [ -75.1675695, 41.0008402 ], [ -75.1676452, 41.0009313 ], [ -75.1676314, 41.0009378 ], [ -75.1676656, 41.000979 ], [ -75.1677442, 41.0009419 ], [ -75.1677167, 41.0009087 ], [ -75.1677406, 41.0008975 ], [ -75.1676582, 41.0007983 ] ] ] ] } },
{ "type": "Feature", "properties": { "fid": 48, "full_id": "w572221597", "osm_id": "572221597", "osm_type": "way", "building": "university", "building:levels": null, "amenity": null, "name": "Henry A. Ahnert Jr. Alumni Center", "leisure": null, "gnis:feature_id": null, "ele": null, "addr:street": "Alumni Center Drive", "addr:state": "PA", "addr:postcode": "18301", "addr:housenumber": "215", "addr:city": "East Stroudsburg" }, "geometry": { "type": "MultiPolygon", "coordinates": [ [ [ [ -75.1713405, 40.9996531 ], [ -75.1713402, 40.9997089 ], [ -75.1712252, 40.9997898 ], [ -75.1711949, 40.9997654 ], [ -75.171161, 40.9997893 ], [ -75.1711417, 40.9997892 ], [ -75.1711412, 40.9998358 ], [ -75.1710788, 40.9998354 ], [ -75.1710792, 40.9997887 ], [ -75.1710603, 40.9997886 ], [ -75.1710599, 40.999835 ], [ -75.1708261, 40.9998339 ], [ -75.1708259, 40.9998612 ], [ -75.1707744, 40.9998611 ], [ -75.1707746, 40.9998326 ], [ -75.1706624, 40.9998324 ], [ -75.1706628, 40.9997155 ], [ -75.1707723, 40.9997157 ], [ -75.1707725, 40.9996224 ], [ -75.1708069, 40.9996224 ], [ -75.1708069, 40.9996123 ], [ -75.1709731, 40.9996117 ], [ -75.1709727, 40.9995628 ], [ -75.1710971, 40.9995623 ], [ -75.1710973, 40.9995927 ], [ -75.171223, 40.9996329 ], [ -75.1712299, 40.9996329 ], [ -75.1712824, 40.9996331 ], [ -75.1712822, 40.9996529 ], [ -75.1713405, 40.9996531 ] ] ] ] } },
{ "type": "Feature", "properties": { "fid": 49, "full_id": "w572221598", "osm_id": "572221598", "osm_type": "way", "building": "university", "building:levels": null, "amenity": null, "name": "Spangenburg Farm Barn & Storage", "leisure": null, "gnis:feature_id": null, "ele": null, "addr:street": "Alumni Center Drive", "addr:state": "PA", "addr:postcode": "18301", "addr:housenumber": "219", "addr:city": "East Stroudsburg" }, "geometry": { "type": "MultiPolygon", "coordinates": [ [ [ [ -75.1715746, 40.9998934 ], [ -75.17162, 40.9999612 ], [ -75.1716367, 40.9999548 ], [ -75.1716907, 41.0000356 ], [ -75.1716539, 41.0000496 ], [ -75.1716052, 41.0000682 ], [ -75.1715058, 40.9999197 ], [ -75.1715746, 40.9998934 ] ] ] ] } },
{ "type": "Feature", "properties": { "fid": 50, "full_id": "w572221599", "osm_id": "572221599", "osm_type": "way", "building": "university", "building:levels": null, "amenity": null, "name": "Spangenburg Farm Barn & Storage", "leisure": null, "gnis:feature_id": null, "ele": null, "addr:street": "Alumni Center Drive", "addr:state": "PA", "addr:postcode": "18301", "addr:housenumber": "221", "addr:city": "East Stroudsburg" }, "geometry": { "type": "MultiPolygon", "coordinates": [ [ [ [ -75.1718108, 40.9999836 ], [ -75.1716907, 41.0000356 ], [ -75.1716539, 41.0000496 ], [ -75.1717252, 41.0001453 ], [ -75.1718817, 41.0000788 ], [ -75.1718108, 40.9999836 ] ] ] ] } },
{ "type": "Feature", "properties": { "fid": 51, "full_id": "w572221731", "osm_id": "572221731", "osm_type": "way", "building": "university", "building:levels": null, "amenity": null, "name": "Zimbar-Liljenstein Hall", "leisure": null, "gnis:feature_id": "2114396", "ele": "154", "addr:street": "Centre Street", "addr:state": "PA", "addr:postcode": "18301", "addr:housenumber": "1236", "addr:city": "East Stroudsburg" }, "geometry": { "type": "MultiPolygon", "coordinates": [ [ [ [ -75.1739783, 40.9938668 ], [ -75.173927, 40.9938985 ], [ -75.1738476, 40.9939267 ], [ -75.173927, 40.9940043 ], [ -75.1736188, 40.9941593 ], [ -75.173544, 40.9940712 ], [ -75.1734553, 40.9941135 ], [ -75.1731331, 40.9937716 ], [ -75.1732398, 40.9937204 ], [ -75.1732254, 40.9936896 ], [ -75.1732758, 40.9936569 ], [ -75.1732998, 40.9936841 ], [ -75.1736143, 40.99355 ], [ -75.1737175, 40.9936606 ], [ -75.1737967, 40.9936334 ], [ -75.1738735, 40.9936732 ], [ -75.1739359, 40.9937475 ], [ -75.173972, 40.9938273 ], [ -75.1739783, 40.9938668 ] ] ] ] } },
{ "type": "Feature", "properties": { "fid": 52, "full_id": "w572222861", "osm_id": "572222861", "osm_type": "way", "building": "university", "building:levels": null, "amenity": null, "name": "McGarry Communications Center", "leisure": null, "gnis:feature_id": "2114382", "ele": "153", "addr:street": "Centre Street", "addr:state": "PA", "addr:postcode": "18301", "addr:housenumber": "1241", "addr:city": "East Stroudsburg" }, "geometry": { "type": "MultiPolygon", "coordinates": [ [ [ [ -75.174073, 40.9949395 ], [ -75.1738012, 40.9950144 ], [ -75.1736579, 40.9947183 ], [ -75.1739297, 40.9946433 ], [ -75.174073, 40.9949395 ] ] ] ] } },
{ "type": "Feature", "properties": { "fid": 53, "full_id": "w572223916", "osm_id": "572223916", "osm_type": "way", "building": "university", "building:levels": null, "amenity": null, "name": "Mitterling Field Storage", "leisure": null, "gnis:feature_id": null, "ele": null, "addr:street": "Centre Street", "addr:state": "PA", "addr:postcode": "18301", "addr:housenumber": "1272", "addr:city": "East Stroudsburg" }, "geometry": { "type": "MultiPolygon", "coordinates": [ [ [ [ -75.1704785, 40.9948106 ], [ -75.170386, 40.9948805 ], [ -75.1702552, 40.9947819 ], [ -75.1703478, 40.994712 ], [ -75.1704785, 40.9948106 ] ] ] ] } },
{ "type": "Feature", "properties": { "fid": 54, "full_id": "w572226328", "osm_id": "572226328", "osm_type": "way", "building": "university", "building:levels": null, "amenity": null, "name": null, "leisure": null, "gnis:feature_id": null, "ele": null, "addr:street": "Mary Street", "addr:state": "PA", "addr:postcode": "18301", "addr:housenumber": "269", "addr:city": "East Stroudsburg" }, "geometry": { "type": "MultiPolygon", "coordinates": [ [ [ [ -75.1654277, 41.0020891 ], [ -75.1654058, 41.0020753 ], [ -75.1653866, 41.0020795 ], [ -75.165372, 41.0020491 ], [ -75.1654176, 41.0020264 ], [ -75.1654697, 41.0020726 ], [ -75.1654277, 41.0020891 ] ] ] ] } },
{ "type": "Feature", "properties": { "fid": 55, "full_id": "w683433899", "osm_id": "683433899", "osm_type": "way", "building": "university", "building:levels": null, "amenity": null, "name": "LaRue Hall", "leisure": null, "gnis:feature_id": null, "ele": null, "addr:street": null, "addr:state": null, "addr:postcode": null, "addr:housenumber": null, "addr:city": null }, "geometry": { "type": "MultiPolygon", "coordinates": [ [ [ [ -75.1758493, 40.9937975 ], [ -75.175379, 40.9938594 ], [ -75.1753442, 40.9937317 ], [ -75.1758095, 40.9936698 ], [ -75.1758493, 40.9937975 ] ] ] ] } }
]
}
