{
"type": "FeatureCollection",
"name": "dorms",
"crs": { "type": "name", "properties": { "name": "urn:ogc:def:crs:OGC:1.3:CRS84" } },
"features": [
{ "type": "Feature", "properties": { "fid": 1, "full_id": "r7645525", "osm_id": "7645525", "osm_type": "relation", "building": "dormitory", "type": "multipolygon", "name": "Laurel Residence Hall", "gnis:feature_id": "2114379", "ele": "157", "addr:street": "Normal Street", "addr:state": "PA", "addr:postcode": "18301", "addr:housenumber": "289", "addr:city": "East Stroudsburg" }, "geometry": { "type": "MultiPolygon", "coordinates": [ [ [ [ -75.173446, 40.9959155 ], [ -75.1735033, 40.9960277 ], [ -75.173251, 40.9961011 ], [ -75.1733069, 40.9962107 ], [ -75.172999, 40.9963003 ], [ -75.172985, 40.9962731 ], [ -75.1729596, 40.9962805 ], [ -75.1729352, 40.9962325 ], [ -75.1729606, 40.9962251 ], [ -75.172943, 40.9961907 ], [ -75.1726923, 40.9962637 ], [ -75.172635, 40.9961515 ], [ -75.1729775, 40.9960518 ], [ -75.173446, 40.9959155 ] ], [ [ -75.1729947, 40.9961685 ], [ -75.1729675, 40.9961153 ], [ -75.1730839, 40.9960815 ], [ -75.173111, 40.9961347 ], [ -75.1729947, 40.9961685 ] ] ] ] } },
{ "type": "Feature", "properties": { "fid": 2, "full_id": "w531956513", "osm_id": "531956513", "osm_type": "way", "building": "dormitory", "type": null, "name": "Shawnee Residence Hall", "gnis:feature_id": "2114391", "ele": "159", "addr:street": "Normal Street", "addr:state": "PA", "addr:postcode": "18301", "addr:housenumber": "305", "addr:city": "East Stroudsburg" }, "geometry": { "type": "MultiPolygon", "coordinates": [ [ [ [ -75.1718578, 40.9963692 ], [ -75.1718355, 40.9963256 ], [ -75.1718558, 40.9963197 ], [ -75.1718221, 40.9962538 ], [ -75.1720398, 40.9961905 ], [ -75.1719657, 40.9960455 ], [ -75.1718679, 40.9958541 ], [ -75.1717935, 40.9957083 ], [ -75.171849, 40.9956921 ], [ -75.1718645, 40.9957225 ], [ -75.1719449, 40.9956991 ], [ -75.1720592, 40.9959229 ], [ -75.1720793, 40.995917 ], [ -75.1721164, 40.9959897 ], [ -75.1721446, 40.9960447 ], [ -75.1721244, 40.9960506 ], [ -75.1722366, 40.9962701 ], [ -75.1721688, 40.9962898 ], [ -75.1721638, 40.9962801 ], [ -75.1718578, 40.9963692 ] ] ] ] } },
{ "type": "Feature", "properties": { "fid": 3, "full_id": "w531956515", "osm_id": "531956515", "osm_type": "way", "building": "dormitory", "type": null, "name": "Minsi Residence Hall", "gnis:feature_id": "2114383", "ele": "160", "addr:street": "Centre Street", "addr:state": "PA", "addr:postcode": "18301", "addr:housenumber": "1269", "addr:city": "East Stroudsburg" }, "geometry": { "type": "MultiPolygon", "coordinates": [ [ [ [ -75.1712977, 40.9955957 ], [ -75.1712472, 40.9954898 ], [ -75.1715065, 40.9954192 ], [ -75.1714989, 40.9954033 ], [ -75.1716741, 40.9953558 ], [ -75.1716821, 40.9953725 ], [ -75.1718878, 40.9953168 ], [ -75.1718705, 40.9952804 ], [ -75.1722101, 40.9951886 ], [ -75.1722372, 40.9952068 ], [ -75.1722847, 40.9951939 ], [ -75.1723145, 40.9952566 ], [ -75.1723198, 40.9952676 ], [ -75.1722694, 40.9952813 ], [ -75.1722906, 40.9953256 ], [ -75.1712977, 40.9955957 ] ] ] ] } },
{ "type": "Feature", "properties": { "fid": 4, "full_id": "w531956516", "osm_id": "531956516", "osm_type": "way", "building": "dormitory", "type": null, "name": "Linden Residence Hall", "gnis:feature_id": "2114381", "ele": "160", "addr:street": "Centre Street", "addr:state": "PA", "addr:postcode": "18301", "addr:housenumber": "1283", "addr:city": "East Stroudsburg" }, "geometry": { "type": "MultiPolygon", "coordinates": [ [ [ [ -75.171232, 40.9965415 ], [ -75.1710966, 40.9965822 ], [ -75.1706792, 40.9957926 ], [ -75.1708063, 40.9957543 ], [ -75.1708424, 40.9958225 ], [ -75.1709139, 40.995801 ], [ -75.1709487, 40.9958668 ], [ -75.1708859, 40.9958857 ], [ -75.1709289, 40.9959672 ], [ -75.1709887, 40.9959492 ], [ -75.1710963, 40.9961531 ], [ -75.171038, 40.9961706 ], [ -75.1711158, 40.996318 ], [ -75.1711676, 40.9963024 ], [ -75.1712333, 40.9964267 ], [ -75.1711799, 40.9964428 ], [ -75.171232, 40.9965415 ] ] ] ] } },
{ "type": "Feature", "properties": { "fid": 5, "full_id": "w531956522", "osm_id": "531956522", "osm_type": "way", "building": "dormitory", "type": null, "name": "Hemlock Suites", "gnis:feature_id": "2114375", "ele": "159", "addr:street": "Smith Street", "addr:state": "PA", "addr:postcode": "18301", "addr:housenumber": "161", "addr:city": "East Stroudsburg" }, "geometry": { "type": "MultiPolygon", "coordinates": [ [ [ [ -75.1716599, 40.9982059 ], [ -75.171229, 40.9984355 ], [ -75.171174, 40.9984301 ], [ -75.1705705, 40.9977849 ], [ -75.1705743, 40.9977472 ], [ -75.171366, 40.9973254 ], [ -75.1713877, 40.9973487 ], [ -75.1714162, 40.9973335 ], [ -75.1714933, 40.997416 ], [ -75.1714649, 40.9974311 ], [ -75.1714937, 40.997462 ], [ -75.1708631, 40.997798 ], [ -75.1709286, 40.997868 ], [ -75.171259, 40.9982213 ], [ -75.1715361, 40.9980736 ], [ -75.1715657, 40.9981053 ], [ -75.1715801, 40.9980976 ], [ -75.1716321, 40.9981533 ], [ -75.1716178, 40.998161 ], [ -75.1716599, 40.9982059 ] ] ] ] } },
{ "type": "Feature", "properties": { "fid": 6, "full_id": "w531956523", "osm_id": "531956523", "osm_type": "way", "building": "dormitory", "type": null, "name": "Lenape Residence Hall", "gnis:feature_id": "2114380", "ele": "158", "addr:street": "Smith Street", "addr:state": "PA", "addr:postcode": "18301", "addr:housenumber": "151", "addr:city": "East Stroudsburg" }, "geometry": { "type": "MultiPolygon", "coordinates": [ [ [ [ -75.1723409, 40.9984213 ], [ -75.1724229, 40.9985091 ], [ -75.1717441, 40.9988707 ], [ -75.171662, 40.998783 ], [ -75.1723409, 40.9984213 ] ] ] ] } },
{ "type": "Feature", "properties": { "fid": 7, "full_id": "w531956524", "osm_id": "531956524", "osm_type": "way", "building": "dormitory", "type": null, "name": "Hawthorn Suites", "gnis:feature_id": null, "ele": null, "addr:street": "Smith Street", "addr:state": "PA", "addr:postcode": "18301", "addr:housenumber": "115", "addr:city": "East Stroudsburg" }, "geometry": { "type": "MultiPolygon", "coordinates": [ [ [ [ -75.1733226, 40.9994416 ], [ -75.1732742, 40.9994674 ], [ -75.1732894, 40.9994837 ], [ -75.1732091, 40.9995265 ], [ -75.1731938, 40.9995102 ], [ -75.17315, 40.9995335 ], [ -75.1725943, 40.9989394 ], [ -75.1724266, 40.9990288 ], [ -75.1724355, 40.9990383 ], [ -75.1721973, 40.9991652 ], [ -75.1721884, 40.9991557 ], [ -75.1721357, 40.9991838 ], [ -75.1724226, 40.9994905 ], [ -75.172381, 40.9995127 ], [ -75.1723921, 40.9995247 ], [ -75.1722882, 40.99958 ], [ -75.172277, 40.9995681 ], [ -75.1722399, 40.9995878 ], [ -75.1718327, 40.9991525 ], [ -75.1726466, 40.9987189 ], [ -75.1733226, 40.9994416 ] ] ] ] } },
{ "type": "Feature", "properties": { "fid": 8, "full_id": "w821635461", "osm_id": "821635461", "osm_type": "way", "building": "dormitory", "type": null, "name": "Sycamore Suites", "gnis:feature_id": null, "ele": null, "addr:street": "Normal Street", "addr:state": "PA", "addr:postcode": "18301", "addr:housenumber": "304", "addr:city": "East Stroudsburg" }, "geometry": { "type": "MultiPolygon", "coordinates": [ [ [ [ -75.1717411, 40.9971008 ], [ -75.1717662, 40.9970883 ], [ -75.1722383, 40.9968529 ], [ -75.1722931, 40.9968596 ], [ -75.1724654, 40.9970571 ], [ -75.1728685, 40.9975192 ], [ -75.1728631, 40.9975568 ], [ -75.1722108, 40.9978851 ], [ -75.1721884, 40.9978597 ], [ -75.1721636, 40.9978721 ], [ -75.1720893, 40.9977877 ], [ -75.1721159, 40.9977744 ], [ -75.172093, 40.9977483 ], [ -75.1725878, 40.9975007 ], [ -75.1724536, 40.997348 ], [ -75.172285, 40.9971561 ], [ -75.1722007, 40.9970602 ], [ -75.1718503, 40.9972356 ], [ -75.1718235, 40.9972051 ], [ -75.1717987, 40.9972175 ], [ -75.1717331, 40.9971427 ], [ -75.1717642, 40.9971271 ], [ -75.1717411, 40.9971008 ] ] ] ] } }
]
}
